[{"OBJECT_NAME":"STARLINK-36040","OBJECT_ID":"2025-270AC","EPOCH":"2026-03-09T23:06:36.441792","MEAN_MOTION":15.27622482,"ECCENTRICITY":0.00012527,"INCLINATION":43.0025,"RA_OF_ASC_NODE":54.977,"ARG_OF_PERICENTER":213.581,"MEAN_ANOMALY":146.4963,"EPHEMERIS_TYPE":0,"CLASSIFICATION_TYPE":"U","NORAD_CAT_ID":66614,"ELEMENT_SET_NO":999,"REV_AT_EPOCH":1758,"BSTAR":0.0012926562,"MEAN_MOTION_DOT":0.00035527,"MEAN_MOTION_DDOT":0},{"OBJECT_NAME":"SL-8 DEB","OBJECT_ID":"1965-020AH","EPOCH":"2026-03-09T21:20:25.012032","MEAN_MOTION":15.12110764,"ECCENTRICITY":0.01461339,"INCLINATION":55.8593,"RA_OF_ASC_NODE":285.3244,"ARG_OF_PERICENTER":198.731,"MEAN_ANOMALY":160.8307,"EPHEMERIS_TYPE":0,"CLASSIFICATION_TYPE":"U","NORAD_CAT_ID":1392,"ELEMENT_SET_NO":999,"REV_AT_EPOCH":8107,"BSTAR":0.0016215192,"MEAN_MOTION_DOT":0.00036476,"MEAN_MOTION_DDOT":0}]
